NORAD_CAT_ID,OBJECT_NAME,OBJECT_TYPE,EPOCH,MEAN_MOTION,ECCENTRICITY,INCLINATION,RA_OF_ASC_NODE,ARG_OF_PERICENTER,MEAN_ANOMALY,BSTAR,MEAN_MOTION_DOT,MEAN_MOTION_DDOT,TLE_LINE0,TLE_LINE1,TLE_LINE2,SEMIMAJOR_AXIS,PERIOD,APOGEE,PERIGEE,DECAYED
51716.0,STARLINK-3543,PAYLOAD,2023-03-29 06:37:09,15.08840866,0.0001414,53.2168,121.3279,97.0582,263.0571,7.7855e-05,9.51e-06,0.0,0 STARLINK-3543,1 51716U 22016C   23088.27580085  .00000951  00000-0  77855-4 0  9998,2 51716  53.2168 121.3279 0001414  97.0582 263.0571 15.08840866 61987,6917.878,95.437,540.721,538.765,0.0
51716.0,STARLINK-3543,PAYLOAD,2023-03-29 09:47:55,15.08842275,0.0001396,53.2174,120.7334,97.5959,262.5191,9.1843e-05,1.174e-05,0.0,0 STARLINK-3543,1 51716U 22016C   23088.40828098  .00001174  00000-0  91843-4 0  9993,2 51716  53.2174 120.7334 0001396  97.5959 262.5191 15.08842275 60944,6917.873,95.437,540.704,538.773,0.0
51716.0,STARLINK-3543,PAYLOAD,2023-03-29 19:20:14,15.08840374,0.0001407,53.2178,118.9499,86.1858,273.9295,7.25e-05,8.66e-06,0.0,0 STARLINK-3543,1 51716U 22016C   23088.80572309  .00000866  00000-0  72500-4 0  9994,2 51716  53.2178 118.9499 0001407  86.1858 273.9295 15.08840374 61001,6917.879,95.438,540.718,538.771,0.0
51716.0,STARLINK-3543,PAYLOAD,2023-03-30 01:41:47,15.08838248,0.0001464,53.2178,117.7606,86.8023,273.3137,5.0357e-05,5.14e-06,0.0,0 STARLINK-3543,1 51716U 22016C   23089.07068507  .00000514  00000-0  50357-4 0  9990,2 51716  53.2178 117.7606 0001464  86.8023 273.3137 15.08838248 62100,6917.886,95.438,540.764,538.738,0.0
51716.0,STARLINK-3543,PAYLOAD,2023-03-30 08:03:19,15.08839604,0.0001391,53.2171,116.5708,86.3268,273.7883,8.3258e-05,1.037e-05,0.0,0 STARLINK-3543,1 51716U 22016C   23089.33564453  .00001037  00000-0  83258-4 0  9997,2 51716  53.2171 116.5708 0001391  86.3268 273.7883 15.08839604 61083,6917.882,95.438,540.709,538.784,0.0
51716.0,STARLINK-3543,PAYLOAD,2023-03-31 11:04:52,15.08854912,0.0001349,53.216,111.5127,99.2599,260.8545,0.00031624,4.751e-05,0.0,0 STARLINK-3543,1 51716U 22016C   23090.46171785  .00004751  00000-0  31624-3 0  9990,2 51716  53.2160 111.5127 0001349  99.2599 260.8545 15.08854912 62312,6917.835,95.437,540.633,538.767,0.0
51716.0,STARLINK-3543,PAYLOAD,2023-04-01 04:34:07,15.08837549,0.0001194,53.2151,108.241,90.3527,269.7602,0.0001047,1.379e-05,0.0,0 STARLINK-3543,1 51716U 22016C   23091.19036774  .00001379  00000-0  10470-3 0  9998,2 51716  53.2151 108.2410 0001194  90.3527 269.7602 15.08837549 62422,6917.888,95.438,540.579,538.927,0.0
51716.0,STARLINK-3543,PAYLOAD,2023-04-01 07:44:54,15.08839305,0.0001401,53.2167,107.6476,99.0006,261.1144,0.0001164,1.565e-05,0.0,0 STARLINK-3543,1 51716U 22016C   23091.32284763  .00001565  00000-0  11640-3 0  9993,2 51716  53.2167 107.6476 0001401  99.0006 261.1144 15.08839305 61386,6917.883,95.438,540.717,538.778,0.0
51716.0,STARLINK-3543,PAYLOAD,2023-04-02 07:35:40,15.08843415,0.0001494,53.2159,103.1833,115.8201,244.2945,0.00013145,1.805e-05,0.0,0 STARLINK-3543,1 51716U 22016C   23092.31644628  .00001805  00000-0  13145-3 0  9992,2 51716  53.2159 103.1833 0001494 115.8201 244.2945 15.08843415 62593,6917.87,95.437,540.768,538.701,0.0
51716.0,STARLINK-3543,PAYLOAD,2023-04-02 10:46:27,15.08844366,0.0001431,53.2169,102.5918,103.5817,256.5335,0.00019401,2.801e-05,0.0,0 STARLINK-3543,1 51716U 22016C   23092.44892714  .00002801  00000-0  19401-3 0  9995,2 51716  53.2169 102.5918 0001431 103.5817 256.5335 15.08844366 61559,6917.867,95.437,540.722,538.742,0.0
51716.0,STARLINK-3543,PAYLOAD,2023-04-02 17:07:59,15.08845657,0.0001422,53.2168,101.4025,99.9523,260.163,0.000225,3.295e-05,0.0,0 STARLINK-3543,1 51716U 22016C   23092.71388596  .00003295  00000-0  22500-3 0  9995,2 51716  53.2168 101.4025 0001422  99.9523 260.1630 15.08845657 61594,6917.863,95.437,540.712,538.744,0.0
51716.0,STARLINK-3543,PAYLOAD,2023-04-03 10:37:14,15.0884457,0.0001478,53.2166,98.1314,106.0396,254.0759,0.00019175,2.765e-05,0.0,0 STARLINK-3543,1 51716U 22016C   23093.44252717  .00002765  00000-0  19175-3 0  9996,2 51716  53.2166  98.1314 0001478 106.0396 254.0759 15.08844570 62761,6917.866,95.437,540.754,538.709,0.0
51716.0,STARLINK-3543,PAYLOAD,2023-04-04 05:41:52,15.08839419,0.0001481,53.2161,94.5605,107.7057,252.4097,8.8431e-05,1.12e-05,0.0,0 STARLINK-3543,1 51716U 22016C   23094.23740954  .00001120  00000-0  88431-4 0  9995,2 51716  53.2161  94.5605 0001481 107.7057 252.4097 15.08839419 62881,6917.882,95.438,540.772,538.723,0.0
51716.0,STARLINK-3543,PAYLOAD,2023-04-04 08:52:38,15.08840508,0.0001385,53.216,93.9656,103.7946,256.3201,7.5984e-05,9.22e-06,0.0,0 STARLINK-3543,1 51716U 22016C   23094.36988906  .00000922  00000-0  75984-4 0  9998,2 51716  53.2160  93.9656 0001385 103.7946 256.3201 15.08840508 61841,6917.879,95.438,540.702,538.786,0.0
51716.0,STARLINK-3543,PAYLOAD,2023-04-05 07:08:02,15.08841126,0.0001404,53.2175,89.8033,106.0951,254.0195,7.2321e-05,8.63e-06,0.0,0 STARLINK-3543,1 51716U 22016C   23095.29725168  .00000863  00000-0  72321-4 0  9996,2 51716  53.2175  89.8033 0001404 106.0951 254.0195 15.08841126 61983,6917.877,95.437,540.713,538.771,0.0
51716.0,STARLINK-3543,PAYLOAD,2023-04-05 16:40:21,15.08839739,0.0001419,53.2184,88.0186,96.166,263.9493,8.0954e-05,1.001e-05,0.0,0 STARLINK-3543,1 51716U 22016C   23095.69469299  .00001001  00000-0  80954-4 0  9996,2 51716  53.2184  88.0186 0001419  96.1660 263.9493 15.08839739 62040,6917.881,95.438,540.728,538.765,0.0
51716.0,STARLINK-3543,PAYLOAD,2023-04-06 08:34:12,15.08844298,0.0001319,53.2178,85.0473,95.4226,264.6917,0.0001011,1.322e-05,0.0,0 STARLINK-3543,1 51716U 22016C   23096.35708937  .00001322  00000-0  10110-3 0  9997,2 51716  53.2178  85.0473 0001319  95.4226 264.6917 15.08844298 63202,6917.867,95.437,540.645,538.82,0.0
51716.0,STARLINK-3543,PAYLOAD,2023-04-06 22:52:41,15.08837833,0.0001356,53.2166,82.3717,88.7872,271.3276,2.1675e-05,5.7e-07,0.0,0 STARLINK-3543,1 51716U 22016C   23096.95325727  .00000057  00000-0  21675-4 0  9998,2 51716  53.2166  82.3717 0001356  88.7872 271.3276 15.08837833 63292,6917.887,95.438,540.69,538.814,0.0
51716.0,STARLINK-3543,PAYLOAD,2023-04-07 08:25:00,15.0883937,0.0001289,53.2172,80.5865,93.9488,266.1652,3.9693e-05,3.44e-06,0.0,0 STARLINK-3543,1 51716U 22016C   23097.35069589  .00000344  00000-0  39693-4 0  9992,2 51716  53.2172  80.5865 0001289  93.9488 266.1652 15.08839370 62296,6917.882,95.438,540.639,538.856,0.0
51716.0,STARLINK-3543,PAYLOAD,2023-04-08 05:05:00,15.08846125,0.000115,53.2172,76.7209,95.887,264.2253,0.00013266,1.824e-05,0.0,0 STARLINK-3543,1 51716U 22016C   23098.21180825  .00001824  00000-0  13266-3 0  9996,2 51716  53.2172  76.7209 0001150  95.8870 264.2253 15.08846125 63482,6917.862,95.437,540.522,538.931,0.0
51716.0,STARLINK-3543,PAYLOAD,2023-04-08 08:15:46,15.08850113,0.0001278,53.2175,76.1261,95.9266,264.1872,9.1907e-05,1.175e-05,0.0,0 STARLINK-3543,1 51716U 22016C   23098.34428685  .00001175  00000-0  91907-4 0  9997,2 51716  53.2175  76.1261 0001278  95.9266 264.1872 15.08850113 62441,6917.849,95.437,540.599,538.83,0.0
51716.0,STARLINK-3543,PAYLOAD,2023-04-09 06:31:10,15.08841994,0.0001168,53.2176,71.9632,96.5603,263.5522,0.00010413,1.37e-05,0.0,0 STARLINK-3543,1 51716U 22016C   23099.27165376  .00001370  00000-0  10413-3 0  9994,2 51716  53.2176  71.9632 0001168  96.5603 263.5522 15.08841994 63642,6917.874,95.437,540.547,538.931,0.0
51716.0,STARLINK-3543,PAYLOAD,2023-04-10 06:21:57,15.08846326,0.0001165,53.217,67.5035,95.5027,264.6098,5.8781e-05,6.48e-06,0.0,0 STARLINK-3543,1 51716U 22016C   23100.26525082  .00000648  00000-0  58781-4 0  9998,2 51716  53.2170  67.5035 0001165  95.5027 264.6098 15.08846326 62733,6917.861,95.437,540.532,538.92,0.0
51716.0,STARLINK-3543,PAYLOAD,2023-04-10 22:15:49,15.08836601,0.0001254,53.2188,64.534,111.4641,248.6485,2.4448e-05,1.01e-06,0.0,0 STARLINK-3543,1 51716U 22016C   23100.92765758  .00000101  00000-0  24448-4 0  9994,2 51716  53.2188  64.5340 0001254 111.4641 248.6485 15.08836601 63892,6917.891,95.438,540.623,538.888,0.0
51716.0,STARLINK-3543,PAYLOAD,2023-04-11 06:12:45,15.08841209,0.000107,53.2191,63.0454,104.0973,256.0138,7.4095e-05,8.92e-06,0.0,0 STARLINK-3543,1 51716U 22016C   23101.25885717  .00000892  00000-0  74095-4 0  9999,2 51716  53.2191  63.0454 0001070 104.0973 256.0138 15.08841209 62884,6917.877,95.437,540.482,539.001,0.0
51716.0,STARLINK-3543,PAYLOAD,2023-04-12 14:00:28,15.08830735,0.0001052,53.2194,57.0984,97.6564,262.4547,-4.3379e-06,-3.57e-06,0.0,0 STARLINK-3543,1 51716U 22016C   23102.58366806 -.00000357  00000-0 -43379-5 0  9999,2 51716  53.2194  57.0984 0001052  97.6564 262.4547 15.08830735 63081,6917.909,95.438,540.501,539.046,0.0
51716.0,STARLINK-3543,PAYLOAD,2023-04-13 07:29:42,15.0884669,0.0001059,53.2182,53.8254,90.5101,269.6012,0.00013646,1.885e-05,0.0,0 STARLINK-3543,1 51716U 22016C   23103.31229709  .00001885  00000-0  13646-3 0  9998,2 51716  53.2182  53.8254 0001059  90.5101 269.6012 15.08846690 63193,6917.86,95.437,540.458,538.992,0.0
51716.0,STARLINK-3543,PAYLOAD,2023-04-14 05:45:04,15.08875955,0.0001015,53.2181,49.6641,68.6958,291.4143,0.00045639,6.99e-05,0.0,0 STARLINK-3543,1 51716U 22016C   23104.23963569  .00006990  00000-0  45639-3 0  9998,2 51716  53.2181  49.6641 0001015  68.6958 291.4143 15.08875955 64390,6917.77,95.435,540.338,538.933,0.0
51716.0,STARLINK-3543,PAYLOAD,2023-04-15 05:35:52,15.08849652,0.0001384,53.2173,45.2016,92.718,267.3971,4.531e-05,4.33e-06,0.0,0 STARLINK-3543,1 51716U 22016C   23105.23324910  .00000433  00000-0  45310-4 0  9993,2 51716  53.2173  45.2016 0001384  92.7180 267.3971 15.08849652 64546,6917.851,95.437,540.673,538.758,0.0
51716.0,STARLINK-3543,PAYLOAD,2023-04-16 05:26:40,15.08845004,0.0001398,53.2182,40.7417,82.556,277.559,-0.00012208,-2.231e-05,0.0,0 STARLINK-3543,1 51716U 22016C   23106.22685280 -.00002231  00000-0 -12208-3 0  9992,2 51716  53.2182  40.7417 0001398  82.5560 277.5590 15.08845004 64698,6917.865,95.437,540.697,538.763,0.0
